OBJECT_NAME,OBJECT_ID,EPOCH,MEAN_MOTION,ECCENTRICITY,INCLINATION,RA_OF_ASC_NODE,ARG_OF_PERICENTER,MEAN_ANOMALY,EPHEMERIS_TYPE,CLASSIFICATION_TYPE,NORAD_CAT_ID,ELEMENT_SET_NO,REV_AT_EPOCH,BSTAR,MEAN_MOTION_DOT,MEAN_MOTION_DDOT
STARLINK-36530,2026-012X,2026-07-05T20:36:01.831392,15.27542775,.000266,43.0045,7.1021,283.4298,76.6258,0,U,67514,999,2583,.786E-3,.21406E-3,0
STARLINK-36543,2026-012Y,2026-07-06T12:12:03.224160,15.27569558,.0001707,43.0005,3.3784,259.3378,100.7281,0,U,67515,999,2593,.75685738E-3,.20617E-3,0
STARLINK-36537,2026-012Z,2026-07-06T11:57:15.356160,15.27564049,.00016736,43.0014,3.2894,225.5718,134.4997,0,U,67516,999,2593,.54132246E-3,.14656E-3,0
STARLINK-36544,2026-012AA,2026-07-06T12:06:29.860128,15.27592560,.0001913,43.0030,3.3425,267.0277,93.0356,0,U,67517,999,2593,.5672496E-3,.15386E-3,0
STARLINK-36412,2026-012AB,2026-07-05T23:07:20.025408,15.27556246,.0001814,43.0048,6.1547,276.6958,83.3687,0,U,67518,999,2585,.66088E-3,.17955E-3,0
STARLINK-36415,2026-012AC,2026-07-06T11:35:03.179616,15.27557291,.00015,43.0051,3.1649,273.8455,86.2225,0,U,67519,999,2593,.76012464E-3,.20699E-3,0
STARLINK-36547,2026-012AD,2026-07-06T11:46:09.174144,15.27560656,.00018778,43.0034,3.2308,266.8921,93.1716,0,U,67520,999,2593,.57379968E-3,.15552E-3,0
STARLINK-36444,2026-012AE,2026-07-05T23:18:26.805312,15.27544918,.0002085,43.0016,6.2177,292.3325,67.7305,0,U,67521,999,2585,.7095E-3,.19292E-3,0
STARLINK-36587,2026-014A,2026-07-06T05:40:20.127648,15.33438926,.00020782,97.2845,73.7252,133.6189,226.5226,0,U,67532,999,2695,.50150429E-3,.16148E-3,0
STARLINK-36417,2026-014B,2026-07-06T06:35:09.853440,15.33433466,.00019548,97.2851,73.6729,79.9484,280.1979,0,U,67533,999,2695,.59709074E-3,.19244E-3,0
STARLINK-36576,2026-014C,2026-07-06T06:19:28.365600,15.33482016,.00016002,97.2853,73.6889,78.0293,282.1129,0,U,67534,999,2695,.70812987E-3,.22882E-3,0
STARLINK-36574,2026-014D,2026-07-06T05:52:05.711520,15.33430082,.00026036,97.2848,73.7140,73.5668,286.5861,0,U,67535,999,2695,.58057002E-3,.18707E-3,0
STARLINK-36572,2026-014E,2026-07-06T06:23:25.728000,15.33383595,.0002098,97.2852,73.6842,104.1580,255.9896,0,U,67536,999,2695,-.38217186E-3,-.1237E-3,0
STARLINK-36561,2026-014F,2026-07-06T06:11:40.013664,15.33437939,.00014987,97.2855,73.6930,84.3721,275.7693,0,U,67537,999,2695,.61952018E-3,.19974E-3,0
STARLINK-36397,2026-014G,2026-07-06T05:48:10.727712,15.33433235,.00019558,97.2842,73.7151,99.8884,260.2580,0,U,67538,999,2695,.5168416E-3,.16642E-3,0
STARLINK-36573,2026-014H,2026-07-06T06:07:45.309792,15.33440825,.00015999,97.2854,73.7000,82.2660,277.8764,0,U,67539,999,2695,.66725427E-3,.21525E-3,0
STARLINK-36585,2026-014J,2026-07-06T07:33:53.413920,15.33438214,.0001492,97.2854,73.7693,84.8991,275.2422,0,U,67540,999,2696,.57379754E-3,.18491E-3,0
STARLINK-36579,2026-014K,2026-07-06T05:12:56.060928,15.33428080,.00017251,97.2854,73.7503,104.5511,255.5924,0,U,67541,999,2695,.4044878E-3,.12999E-3,0
STARLINK-35934,2026-014L,2026-07-06T05:20:45.672576,15.33426665,.00028604,97.2829,73.7437,88.3082,271.8489,0,U,67542,999,2694,.46071146E-3,.1482E-3,0
STARLINK-36581,2026-014M,2026-07-06T06:03:50.071104,15.33437723,.00011943,97.2848,73.7027,86.4878,273.6502,0,U,67543,999,2695,.55786937E-3,.17974E-3,0
STARLINK-36565,2026-014N,2026-07-06T06:15:34.994880,15.33435373,.0001588,97.2851,73.6928,84.1817,275.9607,0,U,67544,999,2695,.52302464E-3,.16843E-3,0
STARLINK-36583,2026-014P,2026-07-06T05:36:25.692480,15.33430391,.00026379,97.2848,73.7284,100.2512,259.9028,0,U,67545,999,2695,.5463956E-3,.17599E-3,0
STARLINK-36580,2026-014Q,2026-07-06T06:27:19.661184,15.33429342,.00021678,97.2852,73.6828,103.2210,256.9275,0,U,67546,999,2695,.43197205E-3,.1389E-3,0
STARLINK-36584,2026-014R,2026-07-06T05:28:37.401024,15.33414115,.00015756,97.2846,73.7375,81.8833,278.2589,0,U,67547,999,2695,.85433377E-3,.2758E-3,0
STARLINK-36586,2026-014S,2026-07-06T05:24:42.244416,15.33414065,.000169,97.2835,73.7430,90.7239,269.4197,0,U,67548,999,2695,.61556657E-3,.19831E-3,0
STARLINK-36564,2026-014T,2026-07-06T06:31:15.000096,15.33428684,.00017093,97.2852,73.6779,88.8224,271.3214,0,U,67549,999,2689,.60746858E-3,.19577E-3,0
STARLINK-36563,2026-014U,2026-07-06T05:16:52.721760,15.33409262,.00016254,97.2851,73.7481,89.9890,270.1539,0,U,67550,999,2695,.67484548E-3,.2175E-3,0
STARLINK-36566,2026-014V,2026-07-06T05:05:07.804032,15.33407442,.000174,97.2854,73.6064,96.3997,263.7444,0,U,67551,999,2693,.75157198E-3,.24238E-3,0
STARLINK-36567,2026-014W,2026-07-06T05:32:32.363232,15.33413408,.00014011,97.2850,73.7302,91.0716,269.0687,0,U,67552,999,2694,.8199301E-3,.26462E-3,0
STARLINK-36569,2026-014X,2026-07-06T05:44:14.999136,15.33443295,.00017359,97.2833,73.7220,137.1693,222.9685,0,U,67553,999,2694,.68500943E-3,.22104E-3,0
