STARLINK-36530          
1 67514U 26012X   26186.85835453  .00021406  00000+0  78600-3 0  9994
2 67514  43.0045   7.1021 0002660 283.4298  76.6258 15.27542775 25839
STARLINK-36543          
1 67515U 26012Y   26187.50837065  .00020617  00000+0  75686-3 0  9993
2 67515  43.0005   3.3784 0001707 259.3378 100.7281 15.27569558 25936
STARLINK-36537          
1 67516U 26012Z   26187.49809440  .00014656  00000+0  54132-3 0  9997
2 67516  43.0014   3.2894 0001673 225.5718 134.4997 15.27564049 25931
STARLINK-36544          
1 67517U 26012AA  26187.50451227  .00015386  00000+0  56725-3 0  9997
2 67517  43.0030   3.3425 0001913 267.0277  93.0356 15.27592560 25937
STARLINK-36412          
1 67518U 26012AB  26186.96342622  .00017955  00000+0  66088-3 0  9992
2 67518  43.0048   6.1547 0001814 276.6958  83.3687 15.27556246 25856
STARLINK-36415          
1 67519U 26012AC  26187.48267569  .00020699  00000+0  76012-3 0  9994
2 67519  43.0051   3.1649 0001500 273.8455  86.2225 15.27557291 25934
STARLINK-36547          
1 67520U 26012AD  26187.49038396  .00015552  00000+0  57380-3 0  9990
2 67520  43.0034   3.2308 0001877 266.8921  93.1716 15.27560656 25938
STARLINK-36444          
1 67521U 26012AE  26186.97114358  .00019292  00000+0  70950-3 0  9999
2 67521  43.0016   6.2177 0002085 292.3325  67.7305 15.27544918 25855
STARLINK-36587          
1 67532U 26014A   26187.23634407  .00016148  00000+0  50150-3 0  9992
2 67532  97.2845  73.7252 0002078 133.6189 226.5226 15.33438926 26955
STARLINK-36417          
1 67533U 26014B   26187.27441960  .00019244  00000+0  59709-3 0  9996
2 67533  97.2851  73.6729 0001954  79.9484 280.1979 15.33433466 26958
STARLINK-36576          
1 67534U 26014C   26187.26352275  .00022882  00000+0  70813-3 0  9997
2 67534  97.2853  73.6889 0001600  78.0293 282.1129 15.33482016 26958
STARLINK-36574          
1 67535U 26014D   26187.24451055  .00018707  00000+0  58057-3 0  9999
2 67535  97.2848  73.7140 0002603  73.5668 286.5861 15.33430082 26951
STARLINK-36572          
1 67536U 26014E   26187.26627000 -.00012370  00000+0 -38217-3 0  9995
2 67536  97.2852  73.6842 0002098 104.1580 255.9896 15.33383595 26951
STARLINK-36561          
1 67537U 26014F   26187.25810201  .00019974  00000+0  61952-3 0  9999
2 67537  97.2855  73.6930 0001498  84.3721 275.7693 15.33437939 26959
STARLINK-36397          
1 67538U 26014G   26187.24179083  .00016642  00000+0  51684-3 0  9995
2 67538  97.2842  73.7151 0001955  99.8884 260.2580 15.33433235 26950
STARLINK-36573          
1 67539U 26014H   26187.25538553  .00021525  00000+0  66725-3 0  9996
2 67539  97.2854  73.7000 0001599  82.2660 277.8764 15.33440825 26950
STARLINK-36585          
1 67540U 26014J   26187.31520155  .00018491  00000+0  57380-3 0  9999
2 67540  97.2854  73.7693 0001492  84.8991 275.2422 15.33438214 26960
STARLINK-36579          
1 67541U 26014K   26187.21731552  .00012999  00000+0  40449-3 0  9999
2 67541  97.2854  73.7503 0001725 104.5511 255.5924 15.33428080 26955
STARLINK-35934          
1 67542U 26014L   26187.22275084  .00014820  00000+0  46071-3 0  9996
2 67542  97.2829  73.7437 0002860  88.3082 271.8489 15.33426665 26940
STARLINK-36581          
1 67543U 26014M   26187.25266286  .00017974  00000+0  55787-3 0  9991
2 67543  97.2848  73.7027 0001194  86.4878 273.6502 15.33437723 26952
STARLINK-36565          
1 67544U 26014N   26187.26082170  .00016843  00000+0  52302-3 0  9995
2 67544  97.2851  73.6928 0001588  84.1817 275.9607 15.33435373 26951
STARLINK-36583          
1 67545U 26014P   26187.23363070  .00017599  00000+0  54640-3 0  9990
2 67545  97.2848  73.7284 0002637 100.2512 259.9028 15.33430391 26956
STARLINK-36580          
1 67546U 26014Q   26187.26897756  .00013890  00000+0  43197-3 0  9992
2 67546  97.2852  73.6828 0002167 103.2210 256.9275 15.33429342 26956
STARLINK-36584          
1 67547U 26014R   26187.22821066  .00027580  00000+0  85433-3 0  9990
2 67547  97.2846  73.7375 0001575  81.8833 278.2589 15.33414115 26959
STARLINK-36586          
1 67548U 26014S   26187.22548894  .00019831  00000+0  61557-3 0  9997
2 67548  97.2835  73.7430 0001690  90.7239 269.4197 15.33414065 26958
STARLINK-36564          
1 67549U 26014T   26187.27170139  .00019577  00000+0  60747-3 0  9993
2 67549  97.2852  73.6779 0001709  88.8224 271.3214 15.33428684 26893
STARLINK-36563          
1 67550U 26014U   26187.22005465  .00021750  00000+0  67485-3 0  9991
2 67550  97.2851  73.7481 0001625  89.9890 270.1539 15.33409262 26958
STARLINK-36566          
1 67551U 26014V   26187.21189588  .00024238  00000+0  75157-3 0  9999
2 67551  97.2854  73.6064 0001740  96.3997 263.7444 15.33407442 26935
STARLINK-36567          
1 67552U 26014W   26187.23093013  .00026462  00000+0  81993-3 0  9995
2 67552  97.2850  73.7302 0001401  91.0716 269.0687 15.33413408 26941
STARLINK-36569          
1 67553U 26014X   26187.23906249  .00022104  00000+0  68501-3 0  9999
2 67553  97.2833  73.7220 0001735 137.1693 222.9685 15.33443295 26941
